CCSDS_OMM_VERS = 2.0
CREATION_DATE  = 
ORIGINATOR     = 

OBJECT_NAME    = 1998-067XK
OBJECT_ID      = 1998-067XK
CENTER_NAME    = EARTH
REF_FRAME      = TEME
TIME_SYSTEM    = UTC
MEAN_ELEMENT_THEORY = SGP/SGP4

EPOCH          = 2026-01-24T17:45:13.187808
MEAN_MOTION    = 15.77428239
ECCENTRICITY   = .00042277
INCLINATION    = 51.6251
RA_OF_ASC_NODE = 277.4071
ARG_OF_PERICENTER = 143.0939
MEAN_ANOMALY   = 217.0353

EPHEMERIS_TYPE = 0
CLASSIFICATION_TYPE = U
NORAD_CAT_ID   = 65731
ELEMENT_SET_NO = 999
REV_AT_EPOCH   = 1990
BSTAR          = .11894462E-2
MEAN_MOTION_DOT = .20549E-2
MEAN_MOTION_DDOT = 0

CCSDS_OMM_VERS = 2.0
CREATION_DATE  = 
ORIGINATOR     = 

OBJECT_NAME    = RSP-03
OBJECT_ID      = 1998-067XL
CENTER_NAME    = EARTH
REF_FRAME      = TEME
TIME_SYSTEM    = UTC
MEAN_ELEMENT_THEORY = SGP/SGP4

EPOCH          = 2026-01-25T11:45:55.820160
MEAN_MOTION    = 15.86833271
ECCENTRICITY   = .00053007
INCLINATION    = 51.6206
RA_OF_ASC_NODE = 271.1241
ARG_OF_PERICENTER = 165.8000
MEAN_ANOMALY   = 194.3154

EPHEMERIS_TYPE = 0
CLASSIFICATION_TYPE = U
NORAD_CAT_ID   = 65732
ELEMENT_SET_NO = 999
REV_AT_EPOCH   = 2006
BSTAR          = .15107655E-2
MEAN_MOTION_DOT = .415301E-2
MEAN_MOTION_DDOT = 0

CCSDS_OMM_VERS = 2.0
CREATION_DATE  = 
ORIGINATOR     = 

OBJECT_NAME    = YOTSUBA-KULOVER
OBJECT_ID      = 1998-067XN
CENTER_NAME    = EARTH
REF_FRAME      = TEME
TIME_SYSTEM    = UTC
MEAN_ELEMENT_THEORY = SGP/SGP4

EPOCH          = 2026-01-25T15:18:31.399488
MEAN_MOTION    = 15.67338887
ECCENTRICITY   = .00044256
INCLINATION    = 51.6265
RA_OF_ASC_NODE = 278.1763
ARG_OF_PERICENTER = 163.1319
MEAN_ANOMALY   = 196.9825

EPHEMERIS_TYPE = 0
CLASSIFICATION_TYPE = U
NORAD_CAT_ID   = 65941
ELEMENT_SET_NO = 999
REV_AT_EPOCH   = 1672
BSTAR          = .12204883E-2
MEAN_MOTION_DOT = .136068E-2
MEAN_MOTION_DDOT = 0

CCSDS_OMM_VERS = 2.0
CREATION_DATE  = 
ORIGINATOR     = 

OBJECT_NAME    = BOTAN
OBJECT_ID      = 1998-067XP
CENTER_NAME    = EARTH
REF_FRAME      = TEME
TIME_SYSTEM    = UTC
MEAN_ELEMENT_THEORY = SGP/SGP4

EPOCH          = 2026-01-25T14:40:59.716128
MEAN_MOTION    = 15.76416676
ECCENTRICITY   = .00050058
INCLINATION    = 51.6220
RA_OF_ASC_NODE = 275.7312
ARG_OF_PERICENTER = 171.6243
MEAN_ANOMALY   = 188.4842

EPHEMERIS_TYPE = 0
CLASSIFICATION_TYPE = U
NORAD_CAT_ID   = 65942
ELEMENT_SET_NO = 999
REV_AT_EPOCH   = 1675
BSTAR          = .16434656E-2
MEAN_MOTION_DOT = .27396E-2
MEAN_MOTION_DDOT = 0

CCSDS_OMM_VERS = 2.0
CREATION_DATE  = 
ORIGINATOR     = 

OBJECT_NAME    = E-KAGAKU-1
OBJECT_ID      = 1998-067XQ
CENTER_NAME    = EARTH
REF_FRAME      = TEME
TIME_SYSTEM    = UTC
MEAN_ELEMENT_THEORY = SGP/SGP4

EPOCH          = 2026-01-24T17:53:10.011264
MEAN_MOTION    = 15.67057145
ECCENTRICITY   = .0003092
INCLINATION    = 51.6279
RA_OF_ASC_NODE = 282.7241
ARG_OF_PERICENTER = 165.0419
MEAN_ANOMALY   = 195.0669

EPHEMERIS_TYPE = 0
CLASSIFICATION_TYPE = U
NORAD_CAT_ID   = 65943
ELEMENT_SET_NO = 999
REV_AT_EPOCH   = 1658
BSTAR          = .10761698E-2
MEAN_MOTION_DOT = .118261E-2
MEAN_MOTION_DDOT = 0

CCSDS_OMM_VERS = 2.0
CREATION_DATE  = 
ORIGINATOR     = 

OBJECT_NAME    = HRC MONOBLOCK CAMERA
OBJECT_ID      = 1998-067XR
CENTER_NAME    = EARTH
REF_FRAME      = TEME
TIME_SYSTEM    = UTC
MEAN_ELEMENT_THEORY = SGP/SGP4

EPOCH          = 2026-01-24T18:03:02.246976
MEAN_MOTION    = 15.57665609
ECCENTRICITY   = .00006669
INCLINATION    = 51.6291
RA_OF_ASC_NODE = 286.5154
ARG_OF_PERICENTER = 32.7434
MEAN_ANOMALY   = 327.3599

EPHEMERIS_TYPE = 0
CLASSIFICATION_TYPE = U
NORAD_CAT_ID   = 66052
ELEMENT_SET_NO = 999
REV_AT_EPOCH   = 1553
BSTAR          = .68383813E-3
MEAN_MOTION_DOT = .51429E-3
MEAN_MOTION_DDOT = 0

CCSDS_OMM_VERS = 2.0
CREATION_DATE  = 
ORIGINATOR     = 

OBJECT_NAME    = HTV-X1
OBJECT_ID      = 2025-241A
CENTER_NAME    = EARTH
REF_FRAME      = TEME
TIME_SYSTEM    = UTC
MEAN_ELEMENT_THEORY = SGP/SGP4

EPOCH          = 2026-01-25T12:42:34.321824
MEAN_MOTION    = 15.48176704
ECCENTRICITY   = .00109586
INCLINATION    = 51.6317
RA_OF_ASC_NODE = 285.7043
ARG_OF_PERICENTER = 29.6295
MEAN_ANOMALY   = 330.5312

EPHEMERIS_TYPE = 0
CLASSIFICATION_TYPE = U
NORAD_CAT_ID   = 66174
ELEMENT_SET_NO = 999
REV_AT_EPOCH   = 51
BSTAR          = .28509977E-3
MEAN_MOTION_DOT = .1487E-3
MEAN_MOTION_DDOT = 0

CCSDS_OMM_VERS = 2.0
CREATION_DATE  = 
ORIGINATOR     = 

OBJECT_NAME    = SZ-21 MODULE
OBJECT_ID      = 2025-246C
CENTER_NAME    = EARTH
REF_FRAME      = TEME
TIME_SYSTEM    = UTC
MEAN_ELEMENT_THEORY = SGP/SGP4

EPOCH          = 2026-01-25T14:31:03.178560
MEAN_MOTION    = 15.65292049
ECCENTRICITY   = .000326
INCLINATION    = 41.4752
RA_OF_ASC_NODE = 107.9254
ARG_OF_PERICENTER = 237.6166
MEAN_ANOMALY   = 122.4359

EPHEMERIS_TYPE = 0
CLASSIFICATION_TYPE = U
NORAD_CAT_ID   = 66515
ELEMENT_SET_NO = 999
REV_AT_EPOCH   = 1131
BSTAR          = .39792943E-3
MEAN_MOTION_DOT = .40571E-3
MEAN_MOTION_DDOT = 0

CCSDS_OMM_VERS = 2.0
CREATION_DATE  = 
ORIGINATOR     = 

OBJECT_NAME    = SHENZHOU-22
OBJECT_ID      = 2025-272A
CENTER_NAME    = EARTH
REF_FRAME      = TEME
TIME_SYSTEM    = UTC
MEAN_ELEMENT_THEORY = SGP/SGP4

EPOCH          = 2026-01-25T15:06:10.764000
MEAN_MOTION    = 15.61068734
ECCENTRICITY   = .00099147
INCLINATION    = 41.4667
RA_OF_ASC_NODE = 109.8872
ARG_OF_PERICENTER = 0.3997
MEAN_ANOMALY   = 359.6849

EPHEMERIS_TYPE = 0
CLASSIFICATION_TYPE = U
NORAD_CAT_ID   = 66645
ELEMENT_SET_NO = 999
REV_AT_EPOCH   = 26764
BSTAR          = .32006088E-3
MEAN_MOTION_DOT = .27552E-3
MEAN_MOTION_DDOT = 0

CCSDS_OMM_VERS = 2.0
CREATION_DATE  = 
ORIGINATOR     = 

OBJECT_NAME    = SOYUZ-MS 28
OBJECT_ID      = 2025-275A
CENTER_NAME    = EARTH
REF_FRAME      = TEME
TIME_SYSTEM    = UTC
MEAN_ELEMENT_THEORY = SGP/SGP4

EPOCH          = 2026-01-25T12:42:34.321824
MEAN_MOTION    = 15.48176704
ECCENTRICITY   = .00109586
INCLINATION    = 51.6317
RA_OF_ASC_NODE = 285.7043
ARG_OF_PERICENTER = 29.6295
MEAN_ANOMALY   = 330.5312

EPHEMERIS_TYPE = 0
CLASSIFICATION_TYPE = U
NORAD_CAT_ID   = 66664
ELEMENT_SET_NO = 999
REV_AT_EPOCH   = 128
BSTAR          = .28509977E-3
MEAN_MOTION_DOT = .1487E-3
MEAN_MOTION_DDOT = 0

CCSDS_OMM_VERS = 2.0
CREATION_DATE  = 
ORIGINATOR     = 

OBJECT_NAME    = DUPLEX
OBJECT_ID      = 1998-067XS
CENTER_NAME    = EARTH
REF_FRAME      = TEME
TIME_SYSTEM    = UTC
MEAN_ELEMENT_THEORY = SGP/SGP4

EPOCH          = 2026-01-24T22:33:57.516192
MEAN_MOTION    = 15.53137539
ECCENTRICITY   = .00018824
INCLINATION    = 51.6306
RA_OF_ASC_NODE = 287.7709
ARG_OF_PERICENTER = 54.3804
MEAN_ANOMALY   = 305.7361

EPHEMERIS_TYPE = 0
CLASSIFICATION_TYPE = U
NORAD_CAT_ID   = 66906
ELEMENT_SET_NO = 999
REV_AT_EPOCH   = 832
BSTAR          = .55194633E-3
MEAN_MOTION_DOT = .34926E-3
MEAN_MOTION_DDOT = 0

CCSDS_OMM_VERS = 2.0
CREATION_DATE  = 
ORIGINATOR     = 

OBJECT_NAME    = 1998-067XT
OBJECT_ID      = 1998-067XT
CENTER_NAME    = EARTH
REF_FRAME      = TEME
TIME_SYSTEM    = UTC
MEAN_ELEMENT_THEORY = SGP/SGP4

EPOCH          = 2026-01-24T17:33:59.573664
MEAN_MOTION    = 15.58344051
ECCENTRICITY   = .0003231
INCLINATION    = 51.6289
RA_OF_ASC_NODE = 287.8796
ARG_OF_PERICENTER = 118.4461
MEAN_ANOMALY   = 241.6857

EPHEMERIS_TYPE = 0
CLASSIFICATION_TYPE = U
NORAD_CAT_ID   = 66907
ELEMENT_SET_NO = 999
REV_AT_EPOCH   = 830
BSTAR          = .13425305E-2
MEAN_MOTION_DOT = .104793E-2
MEAN_MOTION_DDOT = 0

